CCSDS_OEM_VERS = 1.0
CREATION_DATE  = 2017-05-11T11:35:43
ORIGINATOR     = GMAT USER

META_START
OBJECT_NAME          = MOPSSat_alt_35785_km_RAAN_180_073
OBJECT_ID            = SatId
CENTER_NAME          = Earth
REF_FRAME            = EME2000
TIME_SYSTEM          = UTC
START_TIME           = 2017-01-01T00:00:00.000
USEABLE_START_TIME   = 2017-01-01T00:00:00.000
USEABLE_STOP_TIME    = 2017-01-02T00:00:00.000
STOP_TIME            = 2017-01-02T00:00:00.000
INTERPOLATION        = Lagrange
INTERPOLATION_DEGREE = 7 
META_STOP


                                                                                   

2017-01-01T21:32:30.000  -3.406553566446499e+04   2.478821504627527e+04  -4.227852551488626e+01  -1.809072747123396e+00  -2.489271468780020e+00   4.492090698793384e-03
2017-01-01T21:32:40.000  -3.408361731110082e+04   2.476331572673494e+04  -4.223359317317571e+01  -1.807256363898648e+00  -2.490592142428274e+00   4.494377106008719e-03
2017-01-01T21:32:50.000  -3.410168078911340e+04   2.473840320703334e+04  -4.218863797930665e+01  -1.805439014863563e+00  -2.491911490140976e+00   4.496661110845668e-03
2017-01-01T21:33:00.000  -3.411972608876784e+04   2.471347750054602e+04  -4.214365995751233e+01  -1.803620700995022e+00  -2.493229511203632e+00   4.498942712052431e-03
2017-01-01T21:33:10.000  -3.413775320033754e+04   2.468853862065769e+04  -4.209865913204226e+01  -1.801801423270584e+00  -2.494546204902347e+00   4.501221908378329e-03
2017-01-01T21:33:20.000  -3.415576211416921e+04   2.466358658067352e+04  -4.205363552700187e+01  -1.799981182662010e+00  -2.495861570528585e+00   4.503498698582010e-03
2017-01-01T21:33:30.000  -3.417375282063917e+04   2.463862139387799e+04  -4.200858916645893e+01  -1.798159980139561e+00  -2.497175607375973e+00   4.505773081425927e-03
2017-01-01T21:33:40.000  -3.419172531015345e+04   2.461364307353496e+04  -4.196352007444374e+01  -1.796337816671998e+00  -2.498488314740314e+00   4.508045055676369e-03
2017-01-01T21:33:50.000  -3.420967957319006e+04   2.458865163282776e+04  -4.191842827484079e+01  -1.794514693222216e+00  -2.499799691922665e+00   4.510314620108783e-03
2017-01-01T21:34:00.000  -3.422761560023519e+04   2.456364708494871e+04  -4.187331379155051e+01  -1.792690610753767e+00  -2.501109738224678e+00   4.512581773499705e-03
2017-01-01T21:34:10.000  -3.424553338177683e+04   2.453862944310834e+04  -4.182817664850586e+01  -1.790865570231545e+00  -2.502418452948147e+00   4.514846514625984e-03
2017-01-01T21:34:20.000  -3.426343290828588e+04   2.451359872055942e+04  -4.178301686971567e+01  -1.789039572623529e+00  -2.503725835393612e+00   4.517108842262350e-03
2017-01-01T21:34:30.000  -3.428131417020315e+04   2.448855493061804e+04  -4.173783447930251e+01  -1.787212618902323e+00  -2.505031884859419e+00   4.519368755179802e-03
2017-01-01T21:34:40.000  -3.429917715799146e+04   2.446349808658940e+04  -4.169262950136913e+01  -1.785384710039744e+00  -2.506336600645523e+00   4.521626252152181e-03
2017-01-01T21:34:50.000  -3.431702186190202e+04   2.443842820209940e+04  -4.164740196059626e+01  -1.783555847031009e+00  -2.507639982036423e+00   4.523881331926665e-03
2017-01-01T21:35:00.000  -3.433484827225794e+04   2.441334529069316e+04  -4.160215188151862e+01  -1.781726030865453e+00  -2.508942028321870e+00   4.526133993259586e-03
2017-01-01T21:35:10.000  -3.435265637934849e+04   2.438824936598419e+04  -4.155687928879392e+01  -1.779895262537402e+00  -2.510242738789151e+00   4.528384234903069e-03
2017-01-01T21:35:20.000  -3.437044617383918e+04   2.436314044107722e+04  -4.151158420616169e+01  -1.778063543004078e+00  -2.511542112753024e+00   4.530632055656833e-03
2017-01-01T21:35:30.000  -3.438821764636254e+04   2.433801852914381e+04  -4.146626665748151e+01  -1.776230873227576e+00  -2.512840149525851e+00   4.532877454316502e-03
2017-01-01T21:35:40.000  -3.440597078761132e+04   2.431288364329205e+04  -4.142092666649827e+01  -1.774397254165376e+00  -2.514136848424385e+00   4.535120429685378e-03
2017-01-01T21:35:50.000  -3.442370558810596e+04   2.428773579689039e+04  -4.137556425742620e+01  -1.772562686793954e+00  -2.515432208752797e+00   4.537360980545043e-03
2017-01-01T21:36:00.000  -3.444142203836785e+04   2.426257500332774e+04  -4.133017945451594e+01  -1.770727172091287e+00  -2.516726229815334e+00   4.539599105677286e-03
2017-01-01T21:36:10.000  -3.445912012891846e+04   2.423740127601280e+04  -4.128477228205361e+01  -1.768890711036800e+00  -2.518018910916242e+00   4.541834803863951e-03
2017-01-01T21:36:20.000  -3.447679985011144e+04   2.421221462861774e+04  -4.123934276480001e+01  -1.767053304629145e+00  -2.519310251347517e+00   4.544068073865769e-03
2017-01-01T21:36:30.000  -3.449446119235966e+04   2.418701507475059e+04  -4.119389092740001e+01  -1.765214953862306e+00  -2.520600250405479e+00   4.546298914451004e-03
2017-01-01T21:36:40.000  -3.451210414604544e+04   2.416180262808413e+04  -4.114841679461475e+01  -1.763375659734990e+00  -2.521888907384219e+00   4.548527324384138e-03
2017-01-01T21:36:50.000  -3.452972870191884e+04   2.413657730178688e+04  -4.110292039029559e+01  -1.761535423209131e+00  -2.523176221604689e+00   4.550753302476170e-03
2017-01-01T21:37:00.000  -3.454733485069926e+04   2.411133910909199e+04  -4.105740173841006e+01  -1.759694245251378e+00  -2.524462192385598e+00   4.552976847534289e-03
2017-01-01T21:37:10.000  -3.456492258316579e+04   2.408608806316878e+04  -4.101186086281027e+01  -1.757852126823734e+00  -2.525746819050025e+00   4.555197958373299e-03
2017-01-01T21:37:20.000  -3.458249188992693e+04   2.406082417744801e+04  -4.096629778781941e+01  -1.756009068907281e+00  -2.527030100908587e+00   4.557416633786511e-03
2017-01-01T21:37:30.000  -3.460004276159233e+04   2.403554746538095e+04  -4.092071253779741e+01  -1.754165072484602e+00  -2.528312037271984e+00   4.559632872567445e-03
2017-01-01T21:37:40.000  -3.461757518877181e+04   2.401025794043860e+04  -4.087510513713939e+01  -1.752320138539725e+00  -2.529592627450932e+00   4.561846673509704e-03
2017-01-01T21:37:50.000  -3.463508916190911e+04   2.398495561635656e+04  -4.082947561071721e+01  -1.750474268075991e+00  -2.530871870744018e+00   4.564058035386015e-03
2017-01-01T21:38:00.000  -3.465258467150676e+04   2.395964050680593e+04  -4.078382398328600e+01  -1.748627462092040e+00  -2.532149766454121e+00   4.566266956976582e-03
2017-01-01T21:38:10.000  -3.467006170803552e+04   2.393431262552513e+04  -4.073815027972205e+01  -1.746779721591430e+00  -2.533426313881808e+00   4.568473437057679e-03
2017-01-01T21:38:20.000  -3.468752026233538e+04   2.390897198573887e+04  -4.069245452397474e+01  -1.744931047540249e+00  -2.534701512354608e+00   4.570677474452249e-03
2017-01-01T21:38:30.000  -3.470496032521346e+04   2.388361860074055e+04  -4.064673674011711e+01  -1.743081440909602e+00  -2.535975361197657e+00   4.572879067979151e-03
2017-01-01T21:38:40.000  -3.472238188754787e+04   2.385825248374208e+04  -4.060099695207476e+01  -1.741230902664656e+00  -2.537247859741275e+00   4.575078216466283e-03
2017-01-01T21:38:50.000  -3.473978494000758e+04   2.383287364827737e+04  -4.055523518435371e+01  -1.739379433794076e+00  -2.538519007300507e+00   4.577274918715194e-03
2017-01-01T21:39:00.000  -3.475716947328398e+04   2.380748210786961e+04  -4.050945146144022e+01  -1.737527035285750e+00  -2.539788803192038e+00   4.579469173530346e-03
2017-01-01T21:39:10.000  -3.477453547803743e+04   2.378207787610789e+04  -4.046364580793905e+01  -1.735673708132380e+00  -2.541057246730291e+00   4.581660979712338e-03
2017-01-01T21:39:20.000  -3.479188294491905e+04   2.375666096661823e+04  -4.041781824852114e+01  -1.733819453329370e+00  -2.542324337229009e+00   4.583850336060688e-03
2017-01-01T21:39:30.000  -3.480921186457947e+04   2.373123139304862e+04  -4.037196880789664e+01  -1.731964271873732e+00  -2.543590074001905e+00   4.586037241374906e-03
2017-01-01T21:39:40.000  -3.482652222768940e+04   2.370578916903858e+04  -4.032609751076016e+01  -1.730108164761869e+00  -2.544854456364162e+00   4.588221694457119e-03
2017-01-01T21:39:50.000  -3.484381402495061e+04   2.368033430820569e+04  -4.028020438176618e+01  -1.728251132988585e+00  -2.546117483633229e+00   4.590403694113438e-03
2017-01-01T21:40:00.000  -3.486108724711485e+04   2.365486682411467e+04  -4.023428944547369e+01  -1.726393177544839e+00  -2.547379155130209e+00   4.592583239156347e-03
2017-01-01T21:40:10.000  -3.487834188493202e+04   2.362938673035515e+04  -4.018835272648611e+01  -1.724534299423411e+00  -2.548639470176069e+00   4.594760328398160e-03
2017-01-01T21:40:20.000  -3.489557792937555e+04   2.360389404020466e+04  -4.014239424884395e+01  -1.722674499594319e+00  -2.549898428108111e+00   4.596934960679479e-03
2017-01-01T21:40:30.000  -3.491279537136890e+04   2.357838876703671e+04  -4.009641403676033e+01  -1.720813779034592e+00  -2.551156028259983e+00   4.599107134834653e-03
2017-01-01T21:40:40.000  -3.492999420188904e+04   2.355287092416669e+04  -4.005041211434327e+01  -1.718952138717019e+00  -2.552412269969244e+00   4.601276849704858e-03
2017-01-01T21:40:50.000  -3.494717441156427e+04   2.352734052544836e+04  -4.000438850667102e+01  -1.717089579653679e+00  -2.553667152547989e+00   4.603444104087352e-03
2017-01-01T21:41:00.000  -3.496433599107665e+04   2.350179758467747e+04  -3.995834323871678e+01  -1.715226102852419e+00  -2.554920675312238e+00   4.605608896786227e-03
2017-01-01T21:41:10.000  -3.498147893105794e+04   2.347624211574552e+04  -3.991227633562607e+01  -1.713361709328083e+00  -2.556172837574341e+00   4.607771226599313e-03
2017-01-01T21:41:20.000  -3.499860322236536e+04   2.345067413223315e+04  -3.986618782198359e+01  -1.711496400072841e+00  -2.557423638663120e+00   4.609931092352959e-03
2017-01-01T21:41:30.000  -3.501570885585381e+04   2.342509364774547e+04  -3.982007772241776e+01  -1.709630176080652e+00  -2.558673077907221e+00   4.612088492873286e-03
